[{"OBJECT_NAME":"BEIDOU-3 M1 (C19)","OBJECT_ID":"2017-069A","EPOCH":"2026-04-02T23:01:14.458368","MEAN_MOTION":1.8623122,"ECCENTRICITY":0.00125222,"INCLINATION":56.6289,"RA_OF_ASC_NODE":65.5602,"ARG_OF_PERICENTER":314.0342,"MEAN_ANOMALY":45.8356,"EPHEMERIS_TYPE":0,"CLASSIFICATION_TYPE":"U","NORAD_CAT_ID":43001,"ELEMENT_SET_NO":999,"REV_AT_EPOCH":5720,"BSTAR":0,"MEAN_MOTION_DOT":-4.3e-7,"MEAN_MOTION_DDOT":0},{"OBJECT_NAME":"BEIDOU-3 M2 (C20)","OBJECT_ID":"2017-069B","EPOCH":"2026-04-02T08:39:33.260832","MEAN_MOTION":1.8623056,"ECCENTRICITY":0.00101352,"INCLINATION":56.6272,"RA_OF_ASC_NODE":65.6158,"ARG_OF_PERICENTER":333.324,"MEAN_ANOMALY":26.5981,"EPHEMERIS_TYPE":0,"CLASSIFICATION_TYPE":"U","NORAD_CAT_ID":43002,"ELEMENT_SET_NO":999,"REV_AT_EPOCH":5718,"BSTAR":0,"MEAN_MOTION_DOT":-4.1e-7,"MEAN_MOTION_DDOT":0},{"OBJECT_NAME":"BEIDOU-3 M7 (C27)","OBJECT_ID":"2018-003A","EPOCH":"2026-04-02T15:20:39.555744","MEAN_MOTION":1.86232359,"ECCENTRICITY":0.00051155,"INCLINATION":54.3956,"RA_OF_ASC_NODE":304.9489,"ARG_OF_PERICENTER":76.5007,"MEAN_ANOMALY":283.584,"EPHEMERIS_TYPE":0,"CLASSIFICATION_TYPE":"U","NORAD_CAT_ID":43107,"ELEMENT_SET_NO":999,"REV_AT_EPOCH":5594,"BSTAR":0,"MEAN_MOTION_DOT":-6.5e-7,"MEAN_MOTION_DDOT":0},{"OBJECT_NAME":"BEIDOU-3 M8 (C28)","OBJECT_ID":"2018-003B","EPOCH":"2026-04-02T14:02:36.150432","MEAN_MOTION":1.86230868,"ECCENTRICITY":0.00024857,"INCLINATION":54.3877,"RA_OF_ASC_NODE":304.933,"ARG_OF_PERICENTER":292.781,"MEAN_ANOMALY":67.2205,"EPHEMERIS_TYPE":0,"CLASSIFICATION_TYPE":"U","NORAD_CAT_ID":43108,"ELEMENT_SET_NO":999,"REV_AT_EPOCH":5595,"BSTAR":0,"MEAN_MOTION_DOT":-6.5e-7,"MEAN_MOTION_DDOT":0},{"OBJECT_NAME":"BEIDOU-3 M4 (C22)","OBJECT_ID":"2018-018A","EPOCH":"2026-04-03T00:39:33.025248","MEAN_MOTION":1.86231194,"ECCENTRICITY":0.00075342,"INCLINATION":56.5879,"RA_OF_ASC_NODE":65.6246,"ARG_OF_PERICENTER":355.4518,"MEAN_ANOMALY":4.5142,"EPHEMERIS_TYPE":0,"CLASSIFICATION_TYPE":"U","NORAD_CAT_ID":43207,"ELEMENT_SET_NO":999,"REV_AT_EPOCH":5534,"BSTAR":0,"MEAN_MOTION_DOT":-4.3e-7,"MEAN_MOTION_DDOT":0},{"OBJECT_NAME":"BEIDOU-3 M3 (C21)","OBJECT_ID":"2018-018B","EPOCH":"2026-04-04T04:01:39.421632","MEAN_MOTION":1.86231172,"ECCENTRICITY":0.00101609,"INCLINATION":56.5883,"RA_OF_ASC_NODE":65.5909,"ARG_OF_PERICENTER":324.6023,"MEAN_ANOMALY":35.3023,"EPHEMERIS_TYPE":0,"CLASSIFICATION_TYPE":"U","NORAD_CAT_ID":43208,"ELEMENT_SET_NO":999,"REV_AT_EPOCH":5536,"BSTAR":0,"MEAN_MOTION_DOT":-4.2e-7,"MEAN_MOTION_DDOT":0},{"OBJECT_NAME":"BEIDOU-3 M9 (C29)","OBJECT_ID":"2018-029A","EPOCH":"2026-04-03T20:21:33.604704","MEAN_MOTION":1.8622838,"ECCENTRICITY":0.00010132,"INCLINATION":54.2613,"RA_OF_ASC_NODE":302.5478,"ARG_OF_PERICENTER":54.697,"MEAN_ANOMALY":305.3327,"EPHEMERIS_TYPE":0,"CLASSIFICATION_TYPE":"U","NORAD_CAT_ID":43245,"ELEMENT_SET_NO":999,"REV_AT_EPOCH":5451,"BSTAR":0,"MEAN_MOTION_DOT":-6.2e-7,"MEAN_MOTION_DDOT":0},{"OBJECT_NAME":"BEIDOU-3 M10 (C30)","OBJECT_ID":"2018-029B","EPOCH":"2026-04-03T18:47:35.013696","MEAN_MOTION":1.86229032,"ECCENTRICITY":0.00051175,"INCLINATION":54.2588,"RA_OF_ASC_NODE":302.5771,"ARG_OF_PERICENTER":31.2975,"MEAN_ANOMALY":328.7535,"EPHEMERIS_TYPE":0,"CLASSIFICATION_TYPE":"U","NORAD_CAT_ID":43246,"ELEMENT_SET_NO":999,"REV_AT_EPOCH":5449,"BSTAR":0,"MEAN_MOTION_DOT":-6.3e-7,"MEAN_MOTION_DDOT":0},{"OBJECT_NAME":"BEIDOU-2 IGSO-7 (C16)","OBJECT_ID":"2018-057A","EPOCH":"2026-03-27T15:08:38.812992","MEAN_MOTION":1.00275701,"ECCENTRICITY":0.01017729,"INCLINATION":55.1838,"RA_OF_ASC_NODE":163.7722,"ARG_OF_PERICENTER":237.2605,"MEAN_ANOMALY":124.1194,"EPHEMERIS_TYPE":0,"CLASSIFICATION_TYPE":"U","NORAD_CAT_ID":43539,"ELEMENT_SET_NO":999,"REV_AT_EPOCH":2831,"BSTAR":0,"MEAN_MOTION_DOT":-1.68e-6,"MEAN_MOTION_DDOT":0},{"OBJECT_NAME":"BEIDOU-3 M5 (C23)","OBJECT_ID":"2018-062A","EPOCH":"2026-04-02T09:30:45.099648","MEAN_MOTION":1.86224644,"ECCENTRICITY":0.00035105,"INCLINATION":54.085,"RA_OF_ASC_NODE":184.881,"ARG_OF_PERICENTER":295.8623,"MEAN_ANOMALY":64.1328,"EPHEMERIS_TYPE":0,"CLASSIFICATION_TYPE":"U","NORAD_CAT_ID":43581,"ELEMENT_SET_NO":999,"REV_AT_EPOCH":5222,"BSTAR":0,"MEAN_MOTION_DOT":8.0e-8,"MEAN_MOTION_DDOT":0},{"OBJECT_NAME":"BEIDOU-3 M6 (C24)","OBJECT_ID":"2018-062B","EPOCH":"2026-04-03T08:00:01.903968","MEAN_MOTION":1.86227743,"ECCENTRICITY":0.00052163,"INCLINATION":54.0846,"RA_OF_ASC_NODE":184.8383,"ARG_OF_PERICENTER":31.289,"MEAN_ANOMALY":328.7793,"EPHEMERIS_TYPE":0,"CLASSIFICATION_TYPE":"U","NORAD_CAT_ID":43582,"ELEMENT_SET_NO":999,"REV_AT_EPOCH":5224,"BSTAR":0,"MEAN_MOTION_DOT":1.4e-7,"MEAN_MOTION_DDOT":0},{"OBJECT_NAME":"BEIDOU-3 M12 (C26)","OBJECT_ID":"2018-067A","EPOCH":"2026-03-30T12:18:45.296064","MEAN_MOTION":1.8622771,"ECCENTRICITY":0.0008139,"INCLINATION":54.1801,"RA_OF_ASC_NODE":183.7084,"ARG_OF_PERICENTER":37.0616,"MEAN_ANOMALY":323.0089,"EPHEMERIS_TYPE":0,"CLASSIFICATION_TYPE":"U","NORAD_CAT_ID":43602,"ELEMENT_SET_NO":999,"REV_AT_EPOCH":5165,"BSTAR":0,"MEAN_MOTION_DOT":-2.6e-7,"MEAN_MOTION_DDOT":0},{"OBJECT_NAME":"BEIDOU-3 M11 (C25)","OBJECT_ID":"2018-067B","EPOCH":"2026-04-03T09:45:31.010688","MEAN_MOTION":1.86227234,"ECCENTRICITY":0.00046423,"INCLINATION":54.1769,"RA_OF_ASC_NODE":183.54,"ARG_OF_PERICENTER":26.6069,"MEAN_ANOMALY":333.4575,"EPHEMERIS_TYPE":0,"CLASSIFICATION_TYPE":"U","NORAD_CAT_ID":43603,"ELEMENT_SET_NO":999,"REV_AT_EPOCH":5175,"BSTAR":0,"MEAN_MOTION_DOT":1.5e-7,"MEAN_MOTION_DDOT":0},{"OBJECT_NAME":"BEIDOU-3 M13 (C32)","OBJECT_ID":"2018-072A","EPOCH":"2026-04-02T06:54:54.019872","MEAN_MOTION":1.86230927,"ECCENTRICITY":0.00091635,"INCLINATION":56.5605,"RA_OF_ASC_NODE":65.1621,"ARG_OF_PERICENTER":313.4238,"MEAN_ANOMALY":46.4741,"EPHEMERIS_TYPE":0,"CLASSIFICATION_TYPE":"U","NORAD_CAT_ID":43622,"ELEMENT_SET_NO":999,"REV_AT_EPOCH":5124,"BSTAR":0,"MEAN_MOTION_DOT":-4.2e-7,"MEAN_MOTION_DDOT":0},{"OBJECT_NAME":"BEIDOU-3 M14 (C33)","OBJECT_ID":"2018-072B","EPOCH":"2026-04-04T07:13:59.905920","MEAN_MOTION":1.86231122,"ECCENTRICITY":0.0006905,"INCLINATION":56.5642,"RA_OF_ASC_NODE":65.0898,"ARG_OF_PERICENTER":335.0369,"MEAN_ANOMALY":24.9014,"EPHEMERIS_TYPE":0,"CLASSIFICATION_TYPE":"U","NORAD_CAT_ID":43623,"ELEMENT_SET_NO":999,"REV_AT_EPOCH":5127,"BSTAR":0,"MEAN_MOTION_DOT":-4.2e-7,"MEAN_MOTION_DDOT":0},{"OBJECT_NAME":"BEIDOU-3 M16 (C35)","OBJECT_ID":"2018-078A","EPOCH":"2026-04-03T09:12:55.395936","MEAN_MOTION":1.8623242,"ECCENTRICITY":0.00083902,"INCLINATION":54.1581,"RA_OF_ASC_NODE":302.608,"ARG_OF_PERICENTER":35.6309,"MEAN_ANOMALY":324.4467,"EPHEMERIS_TYPE":0,"CLASSIFICATION_TYPE":"U","NORAD_CAT_ID":43647,"ELEMENT_SET_NO":999,"REV_AT_EPOCH":5076,"BSTAR":0,"MEAN_MOTION_DOT":-6.3e-7,"MEAN_MOTION_DDOT":0},{"OBJECT_NAME":"BEIDOU-3 M15 (C34)","OBJECT_ID":"2018-078B","EPOCH":"2026-04-04T01:12:19.806336","MEAN_MOTION":1.86232221,"ECCENTRICITY":0.0005403,"INCLINATION":54.1526,"RA_OF_ASC_NODE":302.585,"ARG_OF_PERICENTER":45.0328,"MEAN_ANOMALY":315.0307,"EPHEMERIS_TYPE":0,"CLASSIFICATION_TYPE":"U","NORAD_CAT_ID":43648,"ELEMENT_SET_NO":999,"REV_AT_EPOCH":5079,"BSTAR":0,"MEAN_MOTION_DOT":-6.2e-7,"MEAN_MOTION_DDOT":0}]
